ONEWEB-0313             
1 49099U 21075AA  26187.93523086  .00000048  00000+0  91017-4 0  9999
2 49099  87.9135   1.9492 0001906  87.1258 273.0092 13.17649663236198
ONEWEB-0314             
1 49100U 21075AB  26187.90162191  .00000040  00000+0  68756-4 0  9991
2 49100  87.9146   1.9308 0002201  84.4626 275.6757 13.17650130236161
ONEWEB-0315             
1 49101U 21075AC  26187.95393374  .00000136  00000+0  34276-3 0  9991
2 49101  87.8959 346.7139 0001750  82.1753 277.9574 13.12443507237761
ONEWEB-0316             
1 49102U 21075AD  26187.35558598 -.00001674  00000+0 -42796-2 0  9992
2 49102  87.9185 331.6431 0002024  96.2200 263.9163 13.18672276239731
ONEWEB-0317             
1 49103U 21075AE  26187.95732416  .00000262  00000+0  69409-3 0  9993
2 49103  87.8959 346.7375 0002248 111.4037 248.7332 13.12443031237781
ONEWEB-0318             
1 49104U 21075AF  26187.88333390  .00000046  00000+0  84038-4 0  9990
2 49104  87.9187 331.5403 0001854  90.5185 269.6160 13.18686302239760
ONEWEB-0319             
1 49105U 21075AG  26187.91679872  .00000021  00000+0  22148-4 0  9990
2 49105  87.9136   1.9422 0001734  74.4057 285.7266 13.17649990236203
ONEWEB-0323             
1 49106U 21075AH  26187.93868277 -.00000326  00000+0 -94243-3 0  9996
2 49106  87.8962 346.7221 0001888  77.0022 283.1318 13.12443169237147
ONEWEB-0329             
1 49107U 21075AJ  26187.84930476  .00000003  00000+0 -25580-4 0  9998
2 49107  87.9137   1.9566 0001973  87.9849 272.1508 13.17649540236174
ONEWEB-0330             
1 49108U 21075AK  26188.16670139 -.00036039  00000+0 -92513-1 0  9998
2 49108  87.9157   1.9010 0002203  90.3527 315.2834 13.18165853  5175
ONEWEB-0292             
1 49186U 21083A   26187.89555389  .00000235  00000+0  60910-3 0  9996
2 49186  87.8970 316.3144 0001861  95.8623 264.2718 13.13468858233511
ONEWEB-0303             
1 49187U 21083B   26187.95582264  .00000067  00000+0  13620-3 0  9995
2 49187  87.9186 331.5243 0001834  90.8331 269.3011 13.18687961232583
ONEWEB-0306             
1 49188U 21083C   26187.94570777  .00000038  00000+0  62979-4 0  9991
2 49188  87.9192 331.5147 0001999 101.9923 258.1433 13.18684487232626
ONEWEB-0307             
1 49189U 21083D   26187.88962429  .00000295  00000+0  77316-3 0  9999
2 49189  87.8976 316.3136 0001878  94.8249 265.3095 13.13471191233516
ONEWEB-0320             
1 49190U 21083E   26187.89006904  .00000050  00000+0  93113-4 0  9992
2 49190  87.9178 331.5420 0001882  97.8842 262.2504 13.18687051232570
ONEWEB-0321             
1 49191U 21083F   26188.20082134  .00000007  00000+0 -15473-4 0  9994
2 49191  87.9191 270.4468 0002181 106.9376 253.1997 13.20773300239473
ONEWEB-0322             
1 49192U 21083G   26187.88540560  .00000390  00000+0  10340-2 0  9990
2 49192  87.8973 316.3142 0001837 113.8645 246.2677 13.13469637233506
ONEWEB-0324             
1 49193U 21083H   26187.93897925  .00000035  00000+0  55862-4 0  9993
2 49193  87.9192 331.5215 0002072  96.0145 264.1223 13.18686326232607
ONEWEB-0325             
1 49194U 21083J   26187.94234613 -.00000005  00000+0 -44973-4 0  9994
2 49194  87.9181 331.5273 0001796  97.0244 263.1092 13.18687267232612
ONEWEB-0326             
1 49195U 21083K   26187.88179649  .00000051  00000+0  96202-4 0  9996
2 49195  87.9189 331.5390 0001748  88.3937 271.7395 13.18686041232597
ONEWEB-0327             
1 49196U 21083L   26187.88151581  .00000053  00000+0  10284-3 0  9999
2 49196  87.9180 331.5417 0001574  87.2368 272.8944 13.18686045232611
ONEWEB-0328             
1 49197U 21083M   26187.87524383  .00000257  00000+0  66755-3 0  9993
2 49197  87.8981 316.2914 0002059  97.8121 262.3242 13.13469942233486
ONEWEB-0331             
1 49198U 21083N   26187.95076537  .00000069  00000+0  14110-3 0  9995
2 49198  87.9192 331.5191 0001831  85.0797 275.0544 13.18684389232613
ONEWEB-0333             
1 49199U 21083P   26188.17487300  .00000159  00000+0  40142-3 0  9999
2 49199  87.8973 316.2563 0001844  99.0012 261.1325 13.13469967233535
ONEWEB-0334             
1 49200U 21083Q   26187.68482148  .00000024  00000+0  26110-4 0  9993
2 49200  87.9191 270.5596 0002143 121.8738 238.2604 13.20774304239365
ONEWEB-0335             
1 49201U 21083R   26187.86506561 -.00000036  00000+0 -13300-3 0  9991
2 49201  87.8972 316.3149 0001907  93.2588 266.8759 13.13472539233502
ONEWEB-0336             
1 49202U 21083S   26187.91247602 -.00001315  00000+0 -36372-2 0  9990
2 49202  87.8973 316.3007 0001969  91.8970 268.2385 13.13473029233500
ONEWEB-0337             
1 49203U 21083T   26187.92250119 -.00000312  00000+0 -88992-3 0  9991
2 49203  87.8969 316.3046 0002085  95.4970 264.6397 13.13469191233507
ONEWEB-0338             
1 49204U 21083U   26188.19240104  .00000072  00000+0  14611-3 0  9993
2 49204  87.9184 270.4610 0001955 107.8401 252.2946 13.20769947239450
ONEWEB-0339             
1 49205U 21083V   26187.85491867 -.00000179  00000+0 -52558-3 0  9992
2 49205  87.8972 316.3113 0002000 107.5072 252.6275 13.13469277233476
ONEWEB-0340             
1 49206U 21083W   26187.93729152  .00000096  00000+0  21026-3 0  9995
2 49206  87.9190 331.5273 0001886  91.5654 268.5694 13.18687122232572
