OBJECT_NAME,OBJECT_ID,EPOCH,MEAN_MOTION,ECCENTRICITY,INCLINATION,RA_OF_ASC_NODE,ARG_OF_PERICENTER,MEAN_ANOMALY,EPHEMERIS_TYPE,CLASSIFICATION_TYPE,NORAD_CAT_ID,ELEMENT_SET_NO,REV_AT_EPOCH,BSTAR,MEAN_MOTION_DOT,MEAN_MOTION_DDOT
ONEWEB-0313,2021-075AA,2026-07-06T22:26:43.946304,13.17649663,.0001906,87.9135,1.9492,87.1258,273.0092,0,U,49099,999,23619,.91017E-4,.48E-6,0
ONEWEB-0314,2021-075AB,2026-07-06T21:38:20.133024,13.17650130,.0002201,87.9146,1.9308,84.4626,275.6757,0,U,49100,999,23616,.68756E-4,.4E-6,0
ONEWEB-0315,2021-075AC,2026-07-06T22:53:39.875136,13.12443507,.000175,87.8959,346.7139,82.1753,277.9574,0,U,49101,999,23776,.34276E-3,.136E-5,0
ONEWEB-0316,2021-075AD,2026-07-06T08:32:02.628672,13.18672276,.00020246,87.9185,331.6431,96.2200,263.9163,0,U,49102,999,23973,-.42795517E-2,-.1674E-4,0
ONEWEB-0317,2021-075AE,2026-07-06T22:58:32.807424,13.12443031,.0002248,87.8959,346.7375,111.4037,248.7332,0,U,49103,999,23778,.69409E-3,.262E-5,0
ONEWEB-0318,2021-075AF,2026-07-06T21:12:00.048960,13.18686302,.0001854,87.9187,331.5403,90.5185,269.6160,0,U,49104,999,23976,.84038E-4,.46E-6,0
ONEWEB-0319,2021-075AG,2026-07-06T22:00:11.409408,13.17649990,.0001734,87.9136,1.9422,74.4057,285.7266,0,U,49105,999,23620,.22148E-4,.21E-6,0
ONEWEB-0323,2021-075AH,2026-07-06T22:31:42.191328,13.12443169,.0001888,87.8962,346.7221,77.0022,283.1318,0,U,49106,999,23714,-.94243E-3,-.326E-5,0
ONEWEB-0329,2021-075AJ,2026-07-06T20:22:59.931264,13.17649540,.0001973,87.9137,1.9566,87.9849,272.1508,0,U,49107,999,23617,-.2558E-4,.3E-7,0
ONEWEB-0330,2021-075AK,2026-07-07T04:00:03.000096,13.18165853,.0002203,87.9157,1.9010,90.3527,315.2834,0,U,49108,999,517,-.92513E-1,-.36039E-3,0
ONEWEB-0292,2021-083A,2026-07-06T21:29:35.856096,13.13468858,.0001861,87.8970,316.3144,95.8623,264.2718,0,U,49186,999,23351,.6091E-3,.235E-5,0
ONEWEB-0303,2021-083B,2026-07-06T22:56:23.076096,13.18687961,.0001834,87.9186,331.5243,90.8331,269.3011,0,U,49187,999,23258,.1362E-3,.67E-6,0
ONEWEB-0306,2021-083C,2026-07-06T22:41:49.151328,13.18684487,.0001999,87.9192,331.5147,101.9923,258.1433,0,U,49188,999,23262,.62979E-4,.38E-6,0
ONEWEB-0307,2021-083D,2026-07-06T21:21:03.538656,13.13471191,.0001878,87.8976,316.3136,94.8249,265.3095,0,U,49189,999,23351,.77316E-3,.295E-5,0
ONEWEB-0320,2021-083E,2026-07-06T21:21:41.965056,13.18687051,.0001882,87.9178,331.5420,97.8842,262.2504,0,U,49190,999,23257,.93113E-4,.5E-6,0
ONEWEB-0321,2021-083F,2026-07-07T04:49:10.963776,13.20773300,.0002181,87.9191,270.4468,106.9376,253.1997,0,U,49191,999,23947,-.15473E-4,.7E-7,0
ONEWEB-0322,2021-083G,2026-07-06T21:14:59.043840,13.13469637,.0001837,87.8973,316.3142,113.8645,246.2677,0,U,49192,999,23350,.1034E-2,.39E-5,0
ONEWEB-0324,2021-083H,2026-07-06T22:32:07.807200,13.18686326,.0002072,87.9192,331.5215,96.0145,264.1223,0,U,49193,999,23260,.55862E-4,.35E-6,0
ONEWEB-0325,2021-083J,2026-07-06T22:36:58.705632,13.18687267,.0001796,87.9181,331.5273,97.0244,263.1092,0,U,49194,999,23261,-.44973E-4,-.5E-7,0
ONEWEB-0326,2021-083K,2026-07-06T21:09:47.216736,13.18686041,.0001748,87.9189,331.5390,88.3937,271.7395,0,U,49195,999,23259,.96202E-4,.51E-6,0
ONEWEB-0327,2021-083L,2026-07-06T21:09:22.965984,13.18686045,.0001574,87.9180,331.5417,87.2368,272.8944,0,U,49196,999,23261,.10284E-3,.53E-6,0
ONEWEB-0328,2021-083M,2026-07-06T21:00:21.066912,13.13469942,.0002059,87.8981,316.2914,97.8121,262.3242,0,U,49197,999,23348,.66755E-3,.257E-5,0
ONEWEB-0331,2021-083N,2026-07-06T22:49:06.127968,13.18684389,.0001831,87.9192,331.5191,85.0797,275.0544,0,U,49198,999,23261,.1411E-3,.69E-6,0
ONEWEB-0333,2021-083P,2026-07-07T04:11:49.027200,13.13469967,.0001844,87.8973,316.2563,99.0012,261.1325,0,U,49199,999,23353,.40142E-3,.159E-5,0
ONEWEB-0334,2021-083Q,2026-07-06T16:26:08.575872,13.20774304,.0002143,87.9191,270.5596,121.8738,238.2604,0,U,49200,999,23936,.2611E-4,.24E-6,0
ONEWEB-0335,2021-083R,2026-07-06T20:45:41.668704,13.13472539,.0001907,87.8972,316.3149,93.2588,266.8759,0,U,49201,999,23350,-.133E-3,-.36E-6,0
ONEWEB-0336,2021-083S,2026-07-06T21:53:57.928128,13.13473029,.0001969,87.8973,316.3007,91.8970,268.2385,0,U,49202,999,23350,-.36372E-2,-.1315E-4,0
ONEWEB-0337,2021-083T,2026-07-06T22:08:24.102816,13.13469191,.0002085,87.8969,316.3046,95.4970,264.6397,0,U,49203,999,23350,-.88992E-3,-.312E-5,0
ONEWEB-0338,2021-083U,2026-07-07T04:37:03.449856,13.20769947,.0001955,87.9184,270.4610,107.8401,252.2946,0,U,49204,999,23945,.14611E-3,.72E-6,0
ONEWEB-0339,2021-083V,2026-07-06T20:31:04.973088,13.13469277,.0002,87.8972,316.3113,107.5072,252.6275,0,U,49205,999,23347,-.52558E-3,-.179E-5,0
ONEWEB-0340,2021-083W,2026-07-06T22:29:41.987328,13.18687122,.0001886,87.9190,331.5273,91.5654,268.5694,0,U,49206,999,23257,.21026E-3,.96E-6,0
